[
    {
        "Altitude(m)": 714834.996237604,
        "Argument of Periapsis(deg)": 0.005695060593313534,
        "Eccentricity": 0.0,
        "Inclination(deg)": 45.0,
        "Latitude(deg)": -37.7920967888657,
        "Longitude(deg)": 44.157772383464405,
        "Mean Anomaly(deg)": -59.68789167625955,
        "RAAN(deg)": 194.99462402927088,
        "Satellite Name": "Constellation 1 876",
        "Satellite Number": 876,
        "Semi-Major Axis(m)": 7083131.272910544,
        "Time(s)": 95
    },
    {
        "Altitude(m)": 714823.7251427644,
        "Argument of Periapsis(deg)": 0.00575500859955894,
        "Eccentricity": 0.0,
        "Inclination(deg)": 45.0,
        "Latitude(deg)": -37.76473542800936,
        "Longitude(deg)": 44.22193371036929,
        "Mean Anomaly(deg)": -59.627190536009714,
        "RAAN(deg)": 194.99456744010533,
        "Satellite Name": "Constellation 1 876",
        "Satellite Number": 876,
        "Semi-Major Axis(m)": 7083131.272910544,
        "Time(s)": 96
    },
    {
        "Altitude(m)": 714812.4388312005,
        "Argument of Periapsis(deg)": 0.005814956605804345,
        "Eccentricity": 0.0,
        "Inclination(deg)": 45.0,
        "Latitude(deg)": -37.737334387590664,
        "Longitude(deg)": 44.28604503041048,
        "Mean Anomaly(deg)": -59.566489395759746,
        "RAAN(deg)": 194.99451085093978,
        "Satellite Name": "Constellation 1 876",
        "Satellite Number": 876,
        "Semi-Major Axis(m)": 7083131.272910544,
        "Time(s)": 97
    },
    {
        "Altitude(m)": 714801.1373437952,
        "Argument of Periapsis(deg)": 0.00587490461204975,
        "Eccentricity": 0.0,
        "Inclination(deg)": 45.0,
        "Latitude(deg)": -37.70989373481651,
        "Longitude(deg)": 44.35010618965596,
        "Mean Anomaly(deg)": -59.505788255509884,
        "RAAN(deg)": 194.9944542617742,
        "Satellite Name": "Constellation 1 876",
        "Satellite Number": 876,
        "Semi-Major Axis(m)": 7083131.272910544,
        "Time(s)": 98
    },
    {
        "Altitude(m)": 714789.8207214854,
        "Argument of Periapsis(deg)": 0.005934852618295156,
        "Eccentricity": 0.0,
        "Inclination(deg)": 45.0,
        "Latitude(deg)": -37.68241353685645,
        "Longitude(deg)": 44.41411720259577,
        "Mean Anomaly(deg)": -59.44508711525992,
        "RAAN(deg)": 194.99439767260864,
        "Satellite Name": "Constellation 1 876",
        "Satellite Number": 876,
        "Semi-Major Axis(m)": 7083131.272910544,
        "Time(s)": 99
    },
    {
        "Altitude(m)": 714778.4890052626,
        "Argument of Periapsis(deg)": 0.005994800624540561,
        "Eccentricity": 0.0,
        "Inclination(deg)": 45.0,
        "Latitude(deg)": -37.654893860842726,
        "Longitude(deg)": 44.47807808404247,
        "Mean Anomaly(deg)": -59.38438597501004,
        "RAAN(deg)": 194.99434108344303,
        "Satellite Name": "Constellation 1 876",
        "Satellite Number": 876,
        "Semi-Major Axis(m)": 7083131.272910544,
        "Time(s)": 100
    },
    {
        "Altitude(m)": 714767.142236163,
        "Argument of Periapsis(deg)": 0.006054748630785968,
        "Eccentricity": 0.0,
        "Inclination(deg)": 45.0,
        "Latitude(deg)": -37.627334773869755,
        "Longitude(deg)": 44.541988849130746,
        "Mean Anomaly(deg)": -59.3236848347602,
        "RAAN(deg)": 194.99428449427748,
        "Satellite Name": "Constellation 1 876",
        "Satellite Number": 876,
        "Semi-Major Axis(m)": 7083131.272910544,
        "Time(s)": 101
    },
    {
        "Altitude(m)": 714755.7804552731,
        "Argument of Periapsis(deg)": 0.006114696637031373,
        "Eccentricity": 0.0,
        "Inclination(deg)": 45.0,
        "Latitude(deg)": -37.5997363429938,
        "Longitude(deg)": 44.60584951331531,
        "Mean Anomaly(deg)": -59.26298369451024,
        "RAAN(deg)": 194.99422790511193,
        "Satellite Name": "Constellation 1 876",
        "Satellite Number": 876,
        "Semi-Major Axis(m)": 7083131.272910544,
        "Time(s)": 102
    },
    {
        "Altitude(m)": 714744.4037037335,
        "Argument of Periapsis(deg)": 0.006174644643276778,
        "Eccentricity": 0.0,
        "Inclination(deg)": 45.0,
        "Latitude(deg)": -37.572098635232656,
        "Longitude(deg)": 44.66966009236965,
        "Mean Anomaly(deg)": -59.202282554260485,
        "RAAN(deg)": 194.99417131594635,
        "Satellite Name": "Constellation 1 876",
        "Satellite Number": 876,
        "Semi-Major Axis(m)": 7083131.272910544,
        "Time(s)": 103
    },
    {
        "Altitude(m)": 714733.0120227353,
        "Argument of Periapsis(deg)": 0.006234592649522184,
        "Eccentricity": 0.0,
        "Inclination(deg)": 45.0,
        "Latitude(deg)": -37.54442171756534,
        "Longitude(deg)": 44.733420434288035,
        "Mean Anomaly(deg)": -59.14158141401051,
        "RAAN(deg)": 194.9941147267808,
        "Satellite Name": "Constellation 1 876",
        "Satellite Number": 876,
        "Semi-Major Axis(m)": 7083131.272910544,
        "Time(s)": 104
    },
    {
        "Altitude(m)": 714721.6054535245,
        "Argument of Periapsis(deg)": 0.00629454065576759,
        "Eccentricity": 0.0,
        "Inclination(deg)": 45.0,
        "Latitude(deg)": -37.516705656930974,
        "Longitude(deg)": 44.79713089167116,
        "Mean Anomaly(deg)": -59.08088027376058,
        "RAAN(deg)": 194.99405813761524,
        "Satellite Name": "Constellation 1 876",
        "Satellite Number": 876,
        "Semi-Major Axis(m)": 7083131.272910544,
        "Time(s)": 105
    },
    {
        "Altitude(m)": 714710.1840373827,
        "Argument of Periapsis(deg)": 0.006354488662012995,
        "Eccentricity": 0.0,
        "Inclination(deg)": 45.0,
        "Latitude(deg)": -37.488950520229764,
        "Longitude(deg)": 44.860791313143565,
        "Mean Anomaly(deg)": -59.020179133510695,
        "RAAN(deg)": 194.99400154844963,
        "Satellite Name": "Constellation 1 876",
        "Satellite Number": 876,
        "Semi-Major Axis(m)": 7083131.272910544,
        "Time(s)": 106
    },
    {
        "Altitude(m)": 714698.7478156565,
        "Argument of Periapsis(deg)": 0.006414436668258401,
        "Eccentricity": 0.0,
        "Inclination(deg)": 45.0,
        "Latitude(deg)": -37.46115637432162,
        "Longitude(deg)": 44.92440171574005,
        "Mean Anomaly(deg)": -58.959477993260855,
        "RAAN(deg)": 194.99394495928408,
        "Satellite Name": "Constellation 1 876",
        "Satellite Number": 876,
        "Semi-Major Axis(m)": 7083131.272910544,
        "Time(s)": 107
    },
    {
        "Altitude(m)": 714687.2968297349,
        "Argument of Periapsis(deg)": 0.0064743846745038075,
        "Eccentricity": 0.0,
        "Inclination(deg)": 45.0,
        "Latitude(deg)": -37.43332328602597,
        "Longitude(deg)": 44.98796211680728,
        "Mean Anomaly(deg)": -58.89877685301087,
        "RAAN(deg)": 194.9938883701185,
        "Satellite Name": "Constellation 1 876",
        "Satellite Number": 876,
        "Semi-Major Axis(m)": 7083131.272910544,
        "Time(s)": 108
    },
    {
        "Altitude(m)": 714675.8311210625,
        "Argument of Periapsis(deg)": 0.0065343326807492125,
        "Eccentricity": 0.0,
        "Inclination(deg)": 45.0,
        "Latitude(deg)": -37.40545132212168,
        "Longitude(deg)": 45.05147253400192,
        "Mean Anomaly(deg)": -58.83807571276091,
        "RAAN(deg)": 194.99383178095295,
        "Satellite Name": "Constellation 1 876",
        "Satellite Number": 876,
        "Semi-Major Axis(m)": 7083131.272910544,
        "Time(s)": 109
    },
    {
        "Altitude(m)": 714664.350731124,
        "Argument of Periapsis(deg)": 0.0065942806869946176,
        "Eccentricity": 0.0,
        "Inclination(deg)": 45.0,
        "Latitude(deg)": -37.37754054934655,
        "Longitude(deg)": 45.11493298528949,
        "Mean Anomaly(deg)": -58.77737457251118,
        "RAAN(deg)": 194.9937751917874,
        "Satellite Name": "Constellation 1 876",
        "Satellite Number": 876,
        "Semi-Major Axis(m)": 7083131.272910544,
        "Time(s)": 110
    },
    {
        "Altitude(m)": 714652.8557014614,
        "Argument of Periapsis(deg)": 0.006654228693240024,
        "Eccentricity": 0.0,
        "Inclination(deg)": 45.0,
        "Latitude(deg)": -37.349591034396866,
        "Longitude(deg)": 45.17834332084686,
        "Mean Anomaly(deg)": -58.71667343226118,
        "RAAN(deg)": 194.99371860262178,
        "Satellite Name": "Constellation 1 876",
        "Satellite Number": 876,
        "Semi-Major Axis(m)": 7083131.272910544,
        "Time(s)": 111
    },
    {
        "Altitude(m)": 714641.3460736613,
        "Argument of Periapsis(deg)": 0.006714176699485429,
        "Eccentricity": 0.0,
        "Inclination(deg)": 45.0,
        "Latitude(deg)": -37.321602843926605,
        "Longitude(deg)": 45.241703895446896,
        "Mean Anomaly(deg)": -58.65597229201124,
        "RAAN(deg)": 194.99366201345623,
        "Satellite Name": "Constellation 1 876",
        "Satellite Number": 876,
        "Semi-Major Axis(m)": 7083131.272910544,
        "Time(s)": 112
    },
    {
        "Altitude(m)": 714629.8218893632,
        "Argument of Periapsis(deg)": 0.006774124705730835,
        "Eccentricity": 0.0,
        "Inclination(deg)": 45.0,
        "Latitude(deg)": -37.293576044548395,
        "Longitude(deg)": 45.305014559876746,
        "Mean Anomaly(deg)": -58.59527115176139,
        "RAAN(deg)": 194.99360542429068,
        "Satellite Name": "Constellation 1 876",
        "Satellite Number": 876,
        "Semi-Major Axis(m)": 7083131.272910544,
        "Time(s)": 113
    }
]